{"type": "FeatureCollection", "features": [ {"type": "Feature", "properties": {"norad_id": 31286, "name": "FENGYUN 1C DEB", "group": "fengyun-1c-debris", "lat": -2.3059241707044134, "lon": -110.0466794012284, "alt_km": 832.7518956312215, "timestamp": "2025-12-22T14:45:57.684258+00:00", "meta": {"OBJECT_NAME": "FENGYUN 1C DEB", "OBJECT_ID": "1999-025BNU", "EPOCH": "2025-12-21T10:05:13.987392", "MEAN_MOTION": 14.22849794, "ECCENTRICITY": 0.00792235, "INCLINATION": 100.8596, "RA_OF_ASC_NODE": 248.0403, "ARG_OF_PERICENTER": 256.4033, "MEAN_ANOMALY": 102.8305, "EPHEMERIS_TYPE": 0, "CLASSIFICATION_TYPE": "U", "NORAD_CAT_ID": 31286, "ELEMENT_SET_NO": 999, "REV_AT_EPOCH": 64143, "BSTAR": 0.002079395, "MEAN_MOTION_DOT": 4.763e-05, "MEAN_MOTION_DDOT": 0}, "tle": {"line1": "1 31286U 99025BNU 25355.42030078  .00004763  00000+0  20794-2 0  9992", "line2": "2 31286 100.8596 248.0403 0079223 256.4033 102.8305 14.22849794641435"}}, "geometry": {"type": "Point", "coordinates": [-110.0466794012284, -2.3059241707044134]}}, {"type": "Feature", "properties": {"norad_id": 31287, "name": "FENGYUN 1C DEB", "group": "fengyun-1c-debris", "lat": -51.54468448123742, "lon": -138.73774284513655, "alt_km": 823.6621404392181, "timestamp": "2025-12-22T14:45:57.684268+00:00", "meta": {"OBJECT_NAME": "FENGYUN 1C DEB", "OBJECT_ID": "1999-025BNV", "EPOCH": "2025-12-17T09:14:55.199040", "MEAN_MOTION": 14.280549, "ECCENTRICITY": 0.0027206, "INCLINATION": 99.41, "RA_OF_ASC_NODE": 47.6846, "ARG_OF_PERICENTER": 50.1324, "MEAN_ANOMALY": 310.2241, "EPHEMERIS_TYPE": 0, "CLASSIFICATION_TYPE": "U", "NORAD_CAT_ID": 31287, "ELEMENT_SET_NO": 999, "REV_AT_EPOCH": 96752, "BSTAR": 0.0011667317, "MEAN_MOTION_DOT": 2.86e-05, "MEAN_MOTION_DDOT": 0}, "tle": {"line1": "1 31287U 99025BNV 25351.38536110  .00002860  00000+0  11667-2 0  9997", "line2": "2 31287  99.4100  47.6846 0027206  50.1324 310.2241 14.28054900967528"}}, "geometry": {"type": "Point", "coordinates": [-138.73774284513655, -51.54468448123742]}}, {"type": "Feature", "properties": {"norad_id": 31288, "name": "FENGYUN 1C DEB", "group": "fengyun-1c-debris", "lat": -81.18770449717944, "lon": -120.84791046991512, "alt_km": 568.3571991266417, "timestamp": "2025-12-22T14:45:57.684278+00:00", "meta": {"OBJECT_NAME": "FENGYUN 1C DEB", "OBJECT_ID": "1999-025BNW", "EPOCH": "2025-12-21T22:11:33.401760", "MEAN_MOTION": 14.96636507, "ECCENTRICITY": 0.00230369, "INCLINATION": 98.7478, "RA_OF_ASC_NODE": 155.0444, "ARG_OF_PERICENTER": 270.1937, "MEAN_ANOMALY": 242.2919, "EPHEMERIS_TYPE": 0, "CLASSIFICATION_TYPE": "U", "NORAD_CAT_ID": 31288, "ELEMENT_SET_NO": 999, "REV_AT_EPOCH": 97694, "BSTAR": 0.005670697, "MEAN_MOTION_DOT": 0.00065498, "MEAN_MOTION_DDOT": 0}, "tle": {"line1": "1 31288U 99025BNW 25355.92469215  .00065498  00000+0  56707-2 0  9993", "line2": "2 31288  98.7478 155.0444 0023036 270.1937 242.2919 14.96636507976944"}}, "geometry": {"type": "Point", "coordinates": [-120.84791046991512, -81.18770449717944]}}, {"type": "Feature", "properties": {"norad_id": 31293, "name": "FENGYUN 1C DEB", "group": "fengyun-1c-debris", "lat": 29.69572520725835, "lon": -0.7753735987481968, "alt_km": 877.2560586872196, "timestamp": "2025-12-22T14:45:57.684289+00:00", "meta": {"OBJECT_NAME": "FENGYUN 1C DEB", "OBJECT_ID": "1999-025BPB", "EPOCH": "2025-12-22T06:13:51.554208", "MEAN_MOTION": 14.30816344, "ECCENTRICITY": 0.01257922, "INCLINATION": 98.4224, "RA_OF_ASC_NODE": 3.727, "ARG_OF_PERICENTER": 216.5399, "MEAN_ANOMALY": 142.7154, "EPHEMERIS_TYPE": 0, "CLASSIFICATION_TYPE": "U", "NORAD_CAT_ID": 31293, "ELEMENT_SET_NO": 999, "REV_AT_EPOCH": 65380, "BSTAR": 6.4145544e-05, "MEAN_MOTION_DOT": 1.39e-06, "MEAN_MOTION_DDOT": 0}, "tle": {"line1": "1 31293U 99025BPB 25356.25962447  .00000139  00000+0  64146-4 0  9990", "line2": "2 31293  98.4224   3.7270 0125792 216.5399 142.7154 14.30816344653809"}}, "geometry": {"type": "Point", "coordinates": [-0.7753735987481968, 29.69572520725835]}}, {"type": "Feature", "properties": {"norad_id": 31294, "name": "FENGYUN 1C DEB", "group": "fengyun-1c-debris", "lat": -78.72896945562844, "lon": 122.85484566614379, "alt_km": 802.0619704824803, "timestamp": "2025-12-22T14:45:57.684299+00:00", "meta": {"OBJECT_NAME": "FENGYUN 1C DEB", "OBJECT_ID": "1999-025BPC", "EPOCH": "2025-12-19T22:44:39.754176", "MEAN_MOTION": 14.15326352, "ECCENTRICITY": 0.0099306, "INCLINATION": 98.5431, "RA_OF_ASC_NODE": 349.2579, "ARG_OF_PERICENTER": 320.3267, "MEAN_ANOMALY": 39.0671, "EPHEMERIS_TYPE": 0, "CLASSIFICATION_TYPE": "U", "NORAD_CAT_ID": 31294, "ELEMENT_SET_NO": 999, "REV_AT_EPOCH": 96955, "BSTAR": 0.00037135, "MEAN_MOTION_DOT": 7.16e-06, "MEAN_MOTION_DDOT": 0}, "tle": {"line1": "1 31294U 99025BPC 25353.94768234  .00000716  00000+0  37135-3 0  9990", "line2": "2 31294  98.5431 349.2579 0099306 320.3267  39.0671 14.15326352969552"}}, "geometry": {"type": "Point", "coordinates": [122.85484566614379, -78.72896945562844]}}, {"type": "Feature", "properties": {"norad_id": 31295, "name": "FENGYUN 1C DEB", "group": "fengyun-1c-debris", "lat": -80.70034819606308, "lon": -116.104939367774, "alt_km": 876.458084045501, "timestamp": "2025-12-22T14:45:57.684320+00:00", "meta": {"OBJECT_NAME": "FENGYUN 1C DEB", "OBJECT_ID": "1999-025BPD", "EPOCH": "2025-12-22T04:51:43.013952", "MEAN_MOTION": 13.96833805, "ECCENTRICITY": 0.0077163, "INCLINATION": 98.3163, "RA_OF_ASC_NODE": 180.2402, "ARG_OF_PERICENTER": 224.3713, "MEAN_ANOMALY": 135.1252, "EPHEMERIS_TYPE": 0, "CLASSIFICATION_TYPE": "U", "NORAD_CAT_ID": 31295, "ELEMENT_SET_NO": 999, "REV_AT_EPOCH": 95635, "BSTAR": -1.5109082e-05, "MEAN_MOTION_DOT": -6e-07, "MEAN_MOTION_DDOT": 0}, "tle": {"line1": "1 31295U 99025BPD 25356.20258118 -.00000060  00000+0 -15109-4 0  9990", "line2": "2 31295  98.3163 180.2402 0077163 224.3713 135.1252 13.96833805956358"}}, "geometry": {"type": "Point", "coordinates": [-116.104939367774, -80.70034819606308]}}, {"type": "Feature", "properties": {"norad_id": 31296, "name": "FENGYUN 1C DEB", "group": "fengyun-1c-debris", "lat": -35.23869122735385, "lon": 86.15530195361632, "alt_km": 649.9166780072101, "timestamp": "2025-12-22T14:45:57.684331+00:00", "meta": {"OBJECT_NAME": "FENGYUN 1C DEB", "OBJECT_ID": "1999-025BPE", "EPOCH": "2025-12-21T18:12:41.258304", "MEAN_MOTION": 14.71858781, "ECCENTRICITY": 0.00196582, "INCLINATION": 99.0677, "RA_OF_ASC_NODE": 271.6795, "ARG_OF_PERICENTER": 183.4641, "MEAN_ANOMALY": 176.6429, "EPHEMERIS_TYPE": 0, "CLASSIFICATION_TYPE": "U", "NORAD_CAT_ID": 31296, "ELEMENT_SET_NO": 999, "REV_AT_EPOCH": 97482, "BSTAR": 0.0033493627, "MEAN_MOTION_DOT": 0.0002102, "MEAN_MOTION_DDOT": 0}, "tle": {"line1": "1 31296U 99025BPE 25355.75881086  .00021020  00000+0  33494-2 0  9998", "line2": "2 31296  99.0677 271.6795 0019658 183.4641 176.6429 14.71858781974829"}}, "geometry": {"type": "Point", "coordinates": [86.15530195361632, -35.23869122735385]}}, {"type": "Feature", "properties": {"norad_id": 31297, "name": "FENGYUN 1C DEB", "group": "fengyun-1c-debris", "lat": 5.3136940453026975, "lon": -44.9400564824846, "alt_km": 688.8421624616622, "timestamp": "2025-12-22T14:45:57.684342+00:00", "meta": {"OBJECT_NAME": "FENGYUN 1C DEB", "OBJECT_ID": "1999-025BPF", "EPOCH": "2025-12-21T08:27:04.379328", "MEAN_MOTION": 14.57108427, "ECCENTRICITY": 0.01395937, "INCLINATION": 98.9347, "RA_OF_ASC_NODE": 132.8672, "ARG_OF_PERICENTER": 96.8123, "MEAN_ANOMALY": 294.1487, "EPHEMERIS_TYPE": 0, "CLASSIFICATION_TYPE": "U", "NORAD_CAT_ID": 31297, "ELEMENT_SET_NO": 999, "REV_AT_EPOCH": 99441, "BSTAR": 0.00025620154, "MEAN_MOTION_DOT": 1.259e-05, "MEAN_MOTION_DDOT": 0}, "tle": {"line1": "1 31297U 99025BPF 25355.35213402  .00001259  00000+0  25620-3 0  9991", "line2": "2 31297  98.9347 132.8672 0139593  96.8123 294.1487 14.57108427994413"}}, "geometry": {"type": "Point", "coordinates": [-44.9400564824846, 5.3136940453026975]}}, {"type": "Feature", "properties": {"norad_id": 31300, "name": "FENGYUN 1C DEB", "group": "fengyun-1c-debris", "lat": 64.58725802105913, "lon": 55.91223905186679, "alt_km": 799.5474191961885, "timestamp": "2025-12-22T14:45:57.684352+00:00", "meta": {"OBJECT_NAME": "FENGYUN 1C DEB", "OBJECT_ID": "1999-025BPJ", "EPOCH": "2025-12-21T00:14:35.388384", "MEAN_MOTION": 14.15159695, "ECCENTRICITY": 0.00597807, "INCLINATION": 99.5422, "RA_OF_ASC_NODE": 74.9312, "ARG_OF_PERICENTER": 36.7902, "MEAN_ANOMALY": 136.2643, "EPHEMERIS_TYPE": 0, "CLASSIFICATION_TYPE": "U", "NORAD_CAT_ID": 31300, "ELEMENT_SET_NO": 999, "REV_AT_EPOCH": 96291, "BSTAR": 0.0007547015, "MEAN_MOTION_DOT": 1.441e-05, "MEAN_MOTION_DDOT": 0}, "tle": {"line1": "1 31300U 99025BPJ 25355.01013181  .00001441  00000+0  75470-3 0  9992", "line2": "2 31300  99.5422  74.9312 0059780  36.7902 136.2643 14.15159695962910"}}, "geometry": {"type": "Point", "coordinates": [55.91223905186679, 64.58725802105913]}}, {"type": "Feature", "properties": {"norad_id": 31302, "name": "FENGYUN 1C DEB", "group": "fengyun-1c-debris", "lat": -14.314790110443875, "lon": 41.83415686624537, "alt_km": 789.9403752170501, "timestamp": "2025-12-22T14:45:57.684362+00:00", "meta": {"OBJECT_NAME": "FENGYUN 1C DEB", "OBJECT_ID": "1999-025BPL", "EPOCH": "2025-12-19T15:12:58.171104", "MEAN_MOTION": 14.27574345, "ECCENTRICITY": 0.002659, "INCLINATION": 99.4129, "RA_OF_ASC_NODE": 36.2, "ARG_OF_PERICENTER": 35.1141, "MEAN_ANOMALY": 117.7071, "EPHEMERIS_TYPE": 0, "CLASSIFICATION_TYPE": "U", "NORAD_CAT_ID": 31302, "ELEMENT_SET_NO": 999, "REV_AT_EPOCH": 96456, "BSTAR": 0.00096178, "MEAN_MOTION_DOT": 2.325e-05, "MEAN_MOTION_DDOT": 0}, "tle": {"line1": "1 31302U 99025BPL 25353.63400661  .00002325  00000+0  96178-3 0  9993", "line2": "2 31302  99.4129  36.2000 0026590  35.1141 117.7071 14.27574345964569"}}, "geometry": {"type": "Point", "coordinates": [41.83415686624537, -14.314790110443875]}}]}